OPTICUBE 04             
1 41851U 16067D   19091.19754680  .00000155  00000-0  18888-4 0  9997
2 41851  97.9121 187.8828 0007594 288.0341  72.0053 14.96772366130173
AEROCUBE 8D             
1 41852U 16067E   19090.92762297  .00000174  00000-0  20609-4 0  9996
2 41852  97.9134 187.4357 0008390 288.9638  71.0674 14.96661514130118
AEROCUBE 8C             
1 41853U 16067F   19091.21610238  .00000757  00000-0  71717-4 0  9990
2 41853  97.9140 187.6696 0008374 290.2318  69.8002 14.96630653130151
PROMETHEUS 2-1          
1 41854U 16067G   19090.92673465  .00000269  00000-0  28763-4 0  9990
2 41854  97.9140 187.4779 0009066 289.2609  70.7631 14.96815740130119
PROMETHEUS 2-3          
1 41855U 16067H   19090.92932625  .00000359  00000-0  36670-4 0  9993
2 41855  97.9142 187.4932 0009199 289.5403  70.4825 14.96819638130117
INS-1B                  
1 41954U 17008G   19090.89382014  .00001164  00000-0  51365-4 0  9999
2 41954  97.4079 156.9463 0010778  67.8325 292.4054 15.23727217117809
BGUSAT                  
1 41999U 17008BD  19090.92075112  .00002025  00000-0  82125-4 0  9995
2 41999  97.4142 159.0183 0009938  81.6966 278.5398 15.25750588117280
DIDO-2                  
1 42000U 17008BE  19090.94754177  .00000665  00000-0  30610-4 0  9996
2 42000  97.4092 157.5346 0010261  83.5581 276.6824 15.23737698117218
PEASSS                  
1 42015U 17008BV  19090.76312022  .00001064  00000-0  45929-4 0  9994
2 42015  97.4097 158.1887 0008152  89.3376 270.8795 15.24661103117725
AL-FARABI 1             
1 42016U 17008BW  19091.12141660  .00001353  00000-0  56661-4 0  9990
2 42016  97.4109 158.9964 0008021  88.3338 271.8818 15.25241204117922
NAYIF-1 (EO-88)         
1 42017U 17008BX  19091.17617690  .00001331  00000-0  55735-4 0  9994
2 42017  97.4107 159.0600 0007978  88.2582 271.9570 15.25271765117954
PHOENIX                 
1 42706U 98067LP  19090.84390046  .00138185  18419-4  38835-3 0  9995
2 42706  51.6241 311.5632 0004699 225.3044 134.7581 15.93282018107319
ALTAIR PATHFINDER       
1 42711U 98067LS  19091.19787211  .00027804  00000-0  18466-3 0  9990
2 42711  51.6349 335.3106 0003855 181.4147 178.6842 15.75231938106695
SHARC                   
1 42712U 98067LT  19090.85262072  .00156560  20317-4  46333-3 0  9999
2 42712  51.6279 328.4060 0005099 210.2572 149.8141 15.92237943106991
ZA-AEROSAT              
1 42713U 98067LU  19090.86045936  .00090104  00000-0  30196-3 0  9993
2 42713  51.6307 317.8162 0004334 206.5221 153.5563 15.89368044106891
CSUNSAT1                
1 42715U 98067LW  19090.99082020  .00146938  19604-4  37200-3 0  9998
2 42715  51.6268 312.6027 0005660 220.2670 139.7919 15.95201202106975
NJUST-1                 
1 42722U 98067MB  19091.12674718  .00060319  00000-0  26180-3 0  9992
2 42722  51.6378 322.4339 0003919 218.3929 276.9644 15.84236273105927
NSIGHT                  
1 42726U 98067MF  19091.09221421  .00017046  00000-0  15465-3 0  9994
2 42726  51.6387 349.8451 0004557 219.3808 140.6857 15.68130992105471
SNUSAT-1B               
1 42727U 98067MG  19089.91797841  .06519165  12339-4  59073-3 0  9997
2 42727  51.6087 308.8243 0009316 268.9251  91.0707 16.37980460105869
BEEAGLESAT              
1 42736U 98067MR  19090.96977501  .00188871  25622-4  40903-3 0  9998
2 42736  51.6262 310.8567 0006542 239.6443 120.3919 15.97939058105887
UCLSAT                  
1 42765U 17036A   19090.74193058  .00001153  00000-0  52630-4 0  9997
2 42765  97.3606 150.4085 0012661 141.1919 219.0229 15.22532513 99048
LITUANICASAT-2          
1 42768U 17036D   19090.91724664  .00001802  00000-0  80651-4 0  9997
2 42768  97.3638 150.1484 0016684 133.3940 226.8689 15.22447779 98327
AALTO-1                 
1 42775U 17036L   19090.73044901  .00000756  00000-0  36873-4 0  9998
2 42775  97.3594 149.3235 0015339 133.0212 227.2312 15.21194188 98202
URSA MAIOR              
1 42776U 17036M   19090.69779392  .00000813  00000-0  39302-4 0  9997
2 42776  97.3603 149.4144 0015189 133.1038 227.1471 15.21316122 98203
COMPASS 2               
1 42777U 17036N   19090.94209766  .00001443  00000-0  64908-4 0  9999
2 42777  97.3636 150.6195 0014002 133.5865 226.6536 15.22611887 98286
DIAMOND RED             
1 42783U 17036U   19091.08847386  .00000873  00000-0  41163-4 0  9992
2 42783  97.3606 150.4120 0013386 141.1090 219.1112 15.22021944 98292
PEGASUS                 
1 42784U 17036V   19090.88493380  .00000992  00000-0  46003-4 0  9991
2 42784  97.3610 150.3950 0013253 141.5128 218.7056 15.22292298 98279
DIAMOND GREEN           
1 42785U 17036W   19090.62708293  .00000934  00000-0  43843-4 0  9991
2 42785  97.3609 149.9821 0013231 143.0886 217.1263 15.22020598 98212
DIAMOND BLUE            
1 42786U 17036X   19090.69183065  .00000918  00000-0  43122-4 0  9995
2 42786  97.3609 150.0444 0013070 143.0109 217.2031 15.22020342 98228
NUDTSAT                 
1 42787U 17036Y   19091.12725278  .00001592  00000-0  70272-4 0  9998
2 42787  97.3659 151.1861 0010755 134.9435 225.2677 15.23159788 98185
SUCHAI                  
1 42788U 17036Z   19090.91258535  .00001194  00000-0  54178-4 0  9997
2 42788  97.3613 150.6693 0012867 140.6721 219.5452 15.22670446 98366
SKCUBE                  
1 42789U 17036AA  19090.92357225  .00001127  00000-0  51403-4 0  9999
2 42789  97.3610 150.6378 0012713 140.5819 219.6345 15.22586324 98285
VZLUSAT-1               
1 42790U 17036AB  19090.91711566  .00001489  00000-0  65874-4 0  9990
2 42790  97.3622 150.9830 0012336 139.9612 220.2537 15.23163578 98307
ROBUSTA-1B              
1 42792U 17036AD  19090.73145537  .00001187  00000-0  53765-4 0  9992
2 42792  97.3611 150.5770 0012261 141.6458 218.5653 15.22749644 98279
CICERO 6                
1 42793U 17036AE  19090.90367378  .00000791  00000-0  37169-4 0  9991
2 42793  97.3595 150.5930 0011446 142.0596 218.1449 15.22413828 98362
D-SAT                   
1 42794U 17036AF  19090.88944386  .00000254  00000-0  27319-4 0  9999
2 42794  97.5501 139.0143 0127742  44.8413 316.3043 14.91047598 96590
TOKI                    
1 42820U 98067MU  19091.01695710  .00156943  20826-4  38999-3 0  9996
2 42820  51.6271 315.7464 0005246 217.8810 142.1829 15.95522745 99284
MAZAALAI (NUMSAT-1)     
1 42822U 98067MW  19090.99370707  .00129107  17476-4  36924-3 0  9995
2 42822  51.6289 317.9064 0005012 213.8689 146.1998 15.92980087 99236
BRAC ONNESHA            
1 42823U 98067MX  19091.05119459  .00141572  18897-4  37642-3 0  9995
2 42823  51.6261 316.7568 0006143 216.6898 143.3690 15.94299701 99250
NIGERIAEDUSAT-1         
1 42824U 98067MY  19090.85879313  .00121502  16715-4  35713-3 0  9990
2 42824  51.6297 319.3252 0005725 215.7069 144.3555 15.92482584 99199
CORVUS BC2              
1 42846U 17042X   19091.14284917  .00000096  00000-0  14767-4 0  9998
2 42846  97.5747 348.2372 0008708 325.0587  35.0060 14.91939305 93300
CORVUS BC1              
1 42847U 17042Y   19090.90015500  .00000001  00000-0  53679-5 0  9994
2 42847  97.5749 348.0974 0008328 325.8718  34.1965 14.92038800 93261
SILU-1 (SILKROAD 1)     
1 42903U 17021F   19091.11775174  .00418349  95254-4  40218-3 0  9998
2 42903  42.7687 355.2908 0015133 229.9543 270.2639 16.10600088 95556
MIRATA                  
1 43015U 17073C   19090.86197446  .00001412  00000-0  11463-3 0  9991
2 43015  97.7187  15.1534 0257401  54.8103 307.6922 14.78779529 73641
MAKERSAT 0              
1 43016U 17073D   19091.20257908  .00001048  00000-0  86233-4 0  9994
2 43016  97.7220  15.6721 0259304  53.9677 308.5265 14.78592650 73685
ASTERIA                 
1 43020U 98067NH  19091.13896761  .00022536  00000-0  20987-3 0  9997
2 43020  51.6437   0.0586 0002638 163.5155 196.5928 15.67275343 77525
DELLINGR (RBLE)         
1 43021U 98067NJ  19091.17015044  .00008928  00000-0  10727-3 0  9999
2 43021  51.6402   8.4271 0002796 148.6991 211.4170 15.61717394 77413
AEROCUBE 7B (OCSD B)    
1 43042U 17071F   19090.96728470  .00003804  00000-0  10170-3 0  9998
2 43042  51.6378  77.6551 0003934 225.0088 135.0578 15.40612444 73943
AEROCUBE 7C (OCSD C)    
1 43043U 17071G   19091.16224882  .00003498  00000-0  94213-4 0  9990
2 43043  51.6384  76.7198 0004252 230.2153 129.8458 15.40647672 73942
CHEFSAT                 
1 43044U 17071H   19091.14797491  .00006553  00000-0  15616-3 0  9994
2 43044  51.6384  72.9645 0003899 229.5084 130.5563 15.42851223 73990
ASGARDIA 1              
1 43049U 17071N   19090.92609224  .00002889  00000-0  79191-4 0  9997
2 43049  51.6391  77.4143 0001755 250.6287 109.4509 15.40771455 73918
ISARA                   
1 43050U 17071P   19090.55624846  .00006324  00000-0  15319-3 0  9994
2 43050  51.6378  76.4808 0001474 245.7940 114.2892 15.42419549 73881
PROPCUBE 2 (FAUNA)      
1 43052U 17071R   19090.88027927  .00003276  00000-0  87797-4 0  9992
2 43052  51.6385  77.1250 0001642 244.6260 115.4555 15.41010245 73901
CORVUS BC3              
1 43118U 18004H   19090.81765473  .00000732  00000-0  34421-4 0  9990
2 43118  97.4943 158.4088 0011049 160.1482 200.0187 15.22702048 67479
MICROMAS-2A             
1 43131U 18004W   19090.95129276  .00001656  00000-0  71712-4 0  9995
2 43131  97.4965 159.0616 0010114 161.1467 199.0146 15.23798967 67522
CICERO 7                
1 43143U 18004AJ  19090.91726861  .00001319  00000-0  57448-4 0  9993
2 43143  97.4953 159.2356 0007944 167.9529 192.1899 15.23990523 67537
GOMX-4B                 
1 43196U 18015E   19091.17098402  .00000406  00000-0  19716-4 0  9997
2 43196  97.3791 219.8893 0017813 220.8946 139.0957 15.23846673 64382
GOMX-4A                 
1 43197U 18015F   19091.04234676  .00000352  00000-0  17445-4 0  9996
2 43197  97.3785 219.7779 0017847 221.1732 228.0165 15.23944112 64378
1KUNS-PF                
1 43466U 98067NP  19091.16998262  .00018340  00000-0  20201-3 0  9990
2 43466  51.6395  12.1622 0001656 124.6491 235.4660 15.63182981 50626
